#cP2024  2 10 12  0  0.00000000     577 d+D   IGS20 EXT AIUB
## 2300 561600.00000000   300.00000000 60350 0.5000000000000
+   75   G03G04G05G06G07G08G09G11G12G13G14G15G16G17G18G19G20
+        G21G22G23G24G25G26G27G28G29G30G31G32R01R02R03R04R05
+        R07R08R09R11R12R13R14R15R16R17R18R19R20R21R22R24E02
+        E03E04E05E07E08E09E10E11E12E13E14E15E18E19E21E24E25
+        E26E27E30E31E33E34E36  0  0  0  0  0  0  0  0  0  0
++         6  6  7  7  7  6  5  7  7  7  6  9  7  7  7  7  7
++         7  7  6  7  6  6  5  5  8  8  7  6  9  8  8  8  8
++         8  8  6  6  6  7  6  6  7  8  6  8 10  8  6  8  6
++         7  6  6  9  7  7  7  7  7  7  6  7  7  7  6  6  6
++         6  6  6  6  6  6  7  0  0  0  0  0  0  0  0  0  0
%c M  cc GPS ccc cccc cccc cccc cccc ccccc ccccc ccccc ccccc
%c cc cc ccc ccc cccc cccc cccc cccc ccccc ccccc ccccc ccccc
%f  1.2500000  1.025000000  0.00000000000  0.000000000000000
%f  0.0000000  0.000000000  0.00000000000  0.000000000000000
%i    0    0    0    0      0      0      0      0         0
%i    0    0    0    0      0      0      0      0         0
/* Center for Orbit Determination in Europe (CODE)          
/* Ultra-rapid GRE orbits starting year-day 24041 12 hour   
/* Observed/predicted: 24/24 hours (data used up to 042L)   
/* PCV:IGS20      OL/AL:FES2014b NONE     YN ORB:CoN CLK:BRD
*  2024  2 11 14 40  0.00000000
PG03 -11880.090670 -23828.875744   -282.260875    186.465204               P   P
PG04  -4146.736519 -17583.075941  19437.284892    289.105592               P   P
PG05   4188.404415  23379.087684  11619.438887   -161.414718               P   P
PG06 -22854.044722   6473.398614  12063.598303    411.143254               P   P
PG07 -25219.683499  -6336.314217   7011.933618    -59.457263               P   P
PG08   2136.908068 -22430.813717 -13807.222580   -166.507205               P   P
PG09 -14345.493806  -5603.190435  21562.008221     88.689456               P   P
PG11 -12998.930729  12325.590348  19619.169271   -572.244077               P   P
PG12   9892.132620  24683.925045   -823.885019   -476.954196               P   P
PG13 -12211.973471  22187.251217  -7816.987658    624.566644               P   P
PG14 -17253.410940  -2569.646240 -20056.311748    322.993030               P   P
PG15    821.244831  22858.777219 -13813.603468    126.627532               P   P
PG16   3413.881155 -20690.308164  15687.893730   -364.929554               P   P
PG17 -19379.674808   7643.503193 -16138.955548    717.322604               P   P
PG18  25588.328316   5347.425163   5241.602492   -553.258898               P   P
PG19 -20034.701048  14453.614616  -9440.242059    439.218223               P   P
PG20  -5732.384551  16336.855955  20246.135850    387.897031               P   P
PG21  -4388.272468 -14685.033623 -21291.774524    135.306210               P   P
PG22 -13768.657180   5956.296683 -21492.968959     32.943717               P   P
PG23  18270.435377  11233.736778 -15767.322727    153.983972               P   P
PG24   7424.796601  15195.414186 -20965.484397   -429.985958               P   P
PG25  16827.093232  18743.656797   8501.664710    488.263024               P   P
PG26  10480.247069 -12476.306544  20774.470991    191.313200               P   P
PG27  12218.414312 -23139.894143  -3132.474797     -3.105175               P   P
PG28  24192.258687  -5963.314147   9168.398929   -127.592142               P   P
PG29  12579.801201   8089.072457  21902.277340   -607.172253               P   P
PG30 -26377.765778   1377.341894  -3813.577321   -433.933557               P   P
PG31  18126.056758 -10349.707551  16444.172458   -227.730529               P   P
PG32  19021.551103 -11322.693682 -14321.250780   -611.042666               P   P
PR01  -7492.277739 -13715.787276  20168.682008     76.888354               P   P
PR02 -11573.420217   4904.221056  22256.294547    -22.470951               P   P
PR03  -9457.716089  20788.897529  11474.485553     94.322488               P   P
PR04  -2473.121141  24830.548195  -5300.324699    222.988642               P   P
PR05   5907.421445  15658.810844 -19245.005965    126.744621               P   P
PR07   9148.622726 -21282.373080 -10574.755017     75.603512               P   P
PR08   2054.039800 -24778.447284   5681.287036    -74.364060               P   P
PR09  19214.398389   5443.670532  15832.957597    169.448147               P   P
PR11  -6694.340139 -16798.326648  18002.655507     34.682228               P   P
PR12 -19165.471707 -16803.932101    754.442038     36.625192               P   P
PR13 -19836.089561  -7690.800824 -14089.685111    -44.258311               P   P
PR14  -7925.435557   7900.487625 -22918.389588     26.051886               P   P
PR15   7775.103831  17380.886232 -16961.157356     82.294457               P   P
PR16  19163.373116  16778.920359  -1025.516760     23.201851               P   P
PR17 -19216.007401  12137.818757  11557.496441     60.382263               P   P
PR18  -4569.963834  11981.690906  22079.585045    126.842831               P   P
PR19  10935.996641   6965.012071  21969.610100   -265.424562               P   P
PR20  24223.368558  -3931.805963   6882.299539   -108.106993               P   P
PR21  19177.433118 -12001.407513 -11798.869706    -76.147458               P   P
PR22   3596.206940 -12001.406590 -22187.522228    107.600794               P   P
PR24 -24195.680039   5131.509060  -6200.733350    -43.499102               P   P
PE02  19587.761036  15815.121762  15572.808445    102.551604               P   P
PE03  16944.024825   4611.689463 -23831.229799    -93.136078               P   P
PE04 -21506.273910  15260.414445  13455.948602   -324.865688               P   P
PE05   2561.994384  21518.219635 -20160.266114   4719.056133               P   P
PE07  13685.540793 -25895.398319   4307.823264   -103.221645               P   P
PE08  21490.090140 -14726.093351 -14058.594075   -222.256087               P   P
PE09 -13776.288073  25854.611216  -4195.853338   -332.338640               P   P
PE10 -20845.658822  10410.893259  18255.259819   -601.146188               P   P
PE11 -10371.558813  14577.159144  23581.662290   3252.228712               P   P
PE12 -27103.882797   5148.181145  10760.707465   -901.877881               P   P
PE13  11078.128881 -14324.517370 -23403.296426    -20.153692               P   P
PE14   5591.734329 -28478.346258 -14540.663539 999999.999999               P   P
PE15  27331.623044  -4807.810057 -10269.000420    -85.223938               P   P
PE18   -452.034332  19397.675324  13407.436567 999999.999999               P   P
PE19 -15535.088096  -6899.069893  24241.951601   -635.073002               P   P
PE21 -12021.599348 -27003.660793   1488.700414   -578.490992               P   P
PE24  -3381.801305  22754.220087 -18664.831881   -592.496386               P   P
PE25  11763.082395  27103.084250  -1888.286571      0.748111               P   P
PE26 -12053.402289 -15330.539466 -22260.449101    365.768080               P   P
PE27   2960.450102 -22965.219767  18424.119883   -272.117029               P   P
PE30  16185.239206  -5143.349010  24226.136349   -898.523012               P   P
PE31 -16009.275895   5453.339807 -24293.956796    -15.764952               P   P
PE33 -27069.174575  -7686.442134  -9179.894116      7.430420               P   P
PE34  27337.028231   7329.697005   8672.060070    -94.059554               P   P
PE36  11347.857559  15315.961472  22648.745767   -184.490578               P   P
EOF
